STARLINK-3225           
1 49737U 21115P   25282.24664786 -.00000622  00000+0 -21019-4 0  9990
2 49737  53.2161 108.9742 0001290  91.0264 269.0876 15.08835157212674
STARLINK-3143           
1 49738U 21115Q   25281.94218382  .00000028  00000+0  19873-4 0  9997
2 49738  53.2151 110.5484 0001329  96.5561 263.5582 15.08847762212622
STARLINK-3155           
1 49739U 21115R   25281.96972643 -.00000165  00000+0  76976-5 0  9998
2 49739  53.2164 120.2174 0001435  89.9468 270.1689 15.08838982212481
STARLINK-3226           
1 49740U 21115S   25282.26231941 -.00000337  00000+0 -30641-5 0  9994
2 49740  53.2157 108.8783 0001371  81.7794 278.3354 15.08839073212676
STARLINK-3244           
1 49741U 21115T   25282.25864010 -.00000859  00000+0 -35929-4 0  9995
2 49741  53.2168 108.9318 0001020  90.3211 269.7898 15.08838642212673
STARLINK-3202           
1 49742U 21115U   25281.94120475 -.00000430  00000+0 -88939-5 0  9996
2 49742  53.2157 110.3482 0001492  79.3890 280.7270 15.08836450212621
STARLINK-3239           
1 49743U 21115V   25281.92375028  .00000585  00000+0  54857-4 0  9991
2 49743  53.2159 110.3575 0001522  85.0834 275.0332 15.08845261212629
STARLINK-3231           
1 49744U 21115W   25281.93846994 -.00000408  00000+0 -75675-5 0  9996
2 49744  53.2159 110.2523 0001366  92.7191 267.3958 15.08835901212627
STARLINK-3241           
1 49745U 21115X   25281.93477561  .00003527  00000+0  23946-3 0  9992
2 49745  53.2157 110.3462 0001152  82.3506 277.7617 15.08858680212623
STARLINK-3233           
1 49746U 21115Y   25282.22089126  .00001652  00000+0  12191-3 0  9999
2 49746  53.2161 109.0901 0001003 109.2907 250.8194 15.08830197212660
STARLINK-3247           
1 49747U 21115Z   25281.54744422 -.00000815  00000+0 -33086-4 0  9990
2 49747  53.2145 112.1143 0001661  87.2117 272.9065 15.08836990212562
STARLINK-3248           
1 49748U 21115AA  25282.25396707 -.00000114  00000+0  10905-4 0  9995
2 49748  53.2156 108.5169 0001137  95.5478 264.5644 15.08831689212685
STARLINK-3250           
1 49749U 21115AB  25282.24027946 -.00000589  00000+0 -18912-4 0  9994
2 49749  53.2159 109.2435 0001398  90.3350 269.7802 15.08832897212667
STARLINK-3236           
1 49750U 21115AC  25282.23656172  .00000984  00000+0  79893-4 0  9996
2 49750  53.2182 109.0277 0001374  86.0262 274.0888 15.08842216212675
STARLINK-3229           
1 49751U 21115AD  25281.95223474 -.00001047  00000+0 -47670-4 0  9991
2 49751  53.2162 110.2180 0001650  82.4339 277.6840 15.08836225212639
STARLINK-3209           
1 49752U 21115AE  25282.18596428 -.00000265  00000+0  14321-5 0  9998
2 49752  53.2162  99.2576 0001337  82.2610 277.8534 15.08835177212803
