[{"OBJECT_NAME":"STARLINK-3225","OBJECT_ID":"2021-115P","EPOCH":"2025-10-09T05:55:10.375104","MEAN_MOTION":15.08835157,"ECCENTRICITY":0.00012907,"INCLINATION":53.2161,"RA_OF_ASC_NODE":108.9742,"ARG_OF_PERICENTER":91.0264,"MEAN_ANOMALY":269.0876,"EPHEMERIS_TYPE":0,"CLASSIFICATION_TYPE":"U","NORAD_CAT_ID":49737,"ELEMENT_SET_NO":999,"REV_AT_EPOCH":21267,"BSTAR":-2.1019213e-5,"MEAN_MOTION_DOT":-6.22e-6,"MEAN_MOTION_DDOT":0},{"OBJECT_NAME":"STARLINK-3143","OBJECT_ID":"2021-115Q","EPOCH":"2025-10-08T22:36:44.682048","MEAN_MOTION":15.08847762,"ECCENTRICITY":0.0001329,"INCLINATION":53.2151,"RA_OF_ASC_NODE":110.5484,"ARG_OF_PERICENTER":96.5561,"MEAN_ANOMALY":263.5582,"EPHEMERIS_TYPE":0,"CLASSIFICATION_TYPE":"U","NORAD_CAT_ID":49738,"ELEMENT_SET_NO":999,"REV_AT_EPOCH":21262,"BSTAR":1.9873e-5,"MEAN_MOTION_DOT":2.8e-7,"MEAN_MOTION_DDOT":0},{"OBJECT_NAME":"STARLINK-3155","OBJECT_ID":"2021-115R","EPOCH":"2025-10-08T23:16:24.363552","MEAN_MOTION":15.08838982,"ECCENTRICITY":0.00014355,"INCLINATION":53.2164,"RA_OF_ASC_NODE":120.2174,"ARG_OF_PERICENTER":89.9468,"MEAN_ANOMALY":270.1689,"EPHEMERIS_TYPE":0,"CLASSIFICATION_TYPE":"U","NORAD_CAT_ID":49739,"ELEMENT_SET_NO":999,"REV_AT_EPOCH":21248,"BSTAR":7.697578e-6,"MEAN_MOTION_DOT":-1.65e-6,"MEAN_MOTION_DDOT":0},{"OBJECT_NAME":"STARLINK-3226","OBJECT_ID":"2021-115S","EPOCH":"2025-10-09T06:17:44.397024","MEAN_MOTION":15.08839073,"ECCENTRICITY":0.00013715,"INCLINATION":53.2157,"RA_OF_ASC_NODE":108.8783,"ARG_OF_PERICENTER":81.7794,"MEAN_ANOMALY":278.3354,"EPHEMERIS_TYPE":0,"CLASSIFICATION_TYPE":"U","NORAD_CAT_ID":49740,"ELEMENT_SET_NO":999,"REV_AT_EPOCH":21267,"BSTAR":-3.064092e-6,"MEAN_MOTION_DOT":-3.37e-6,"MEAN_MOTION_DDOT":0},{"OBJECT_NAME":"STARLINK-3244","OBJECT_ID":"2021-115T","EPOCH":"2025-10-09T06:12:26.504640","MEAN_MOTION":15.08838642,"ECCENTRICITY":0.00010203,"INCLINATION":53.2168,"RA_OF_ASC_NODE":108.9318,"ARG_OF_PERICENTER":90.3211,"MEAN_ANOMALY":269.7898,"EPHEMERIS_TYPE":0,"CLASSIFICATION_TYPE":"U","NORAD_CAT_ID":49741,"ELEMENT_SET_NO":999,"REV_AT_EPOCH":21267,"BSTAR":-3.5929392e-5,"MEAN_MOTION_DOT":-8.59e-6,"MEAN_MOTION_DDOT":0},{"OBJECT_NAME":"STARLINK-3202","OBJECT_ID":"2021-115U","EPOCH":"2025-10-08T22:35:20.090400","MEAN_MOTION":15.0883645,"ECCENTRICITY":0.0001492,"INCLINATION":53.2157,"RA_OF_ASC_NODE":110.3482,"ARG_OF_PERICENTER":79.389,"MEAN_ANOMALY":280.727,"EPHEMERIS_TYPE":0,"CLASSIFICATION_TYPE":"U","NORAD_CAT_ID":49742,"ELEMENT_SET_NO":999,"REV_AT_EPOCH":21262,"BSTAR":-8.8939e-6,"MEAN_MOTION_DOT":-4.3e-6,"MEAN_MOTION_DDOT":0},{"OBJECT_NAME":"STARLINK-3239","OBJECT_ID":"2021-115V","EPOCH":"2025-10-08T22:10:12.024192","MEAN_MOTION":15.08845261,"ECCENTRICITY":0.0001522,"INCLINATION":53.2159,"RA_OF_ASC_NODE":110.3575,"ARG_OF_PERICENTER":85.0834,"MEAN_ANOMALY":275.0332,"EPHEMERIS_TYPE":0,"CLASSIFICATION_TYPE":"U","NORAD_CAT_ID":49743,"ELEMENT_SET_NO":999,"REV_AT_EPOCH":21262,"BSTAR":5.4857e-5,"MEAN_MOTION_DOT":5.85e-6,"MEAN_MOTION_DDOT":0},{"OBJECT_NAME":"STARLINK-3231","OBJECT_ID":"2021-115W","EPOCH":"2025-10-08T22:31:23.802816","MEAN_MOTION":15.08835901,"ECCENTRICITY":0.0001366,"INCLINATION":53.2159,"RA_OF_ASC_NODE":110.2523,"ARG_OF_PERICENTER":92.7191,"MEAN_ANOMALY":267.3958,"EPHEMERIS_TYPE":0,"CLASSIFICATION_TYPE":"U","NORAD_CAT_ID":49744,"ELEMENT_SET_NO":999,"REV_AT_EPOCH":21262,"BSTAR":-7.5675e-6,"MEAN_MOTION_DOT":-4.08e-6,"MEAN_MOTION_DDOT":0},{"OBJECT_NAME":"STARLINK-3241","OBJECT_ID":"2021-115X","EPOCH":"2025-10-08T22:26:04.612704","MEAN_MOTION":15.0885868,"ECCENTRICITY":0.0001152,"INCLINATION":53.2157,"RA_OF_ASC_NODE":110.3462,"ARG_OF_PERICENTER":82.3506,"MEAN_ANOMALY":277.7617,"EPHEMERIS_TYPE":0,"CLASSIFICATION_TYPE":"U","NORAD_CAT_ID":49745,"ELEMENT_SET_NO":999,"REV_AT_EPOCH":21262,"BSTAR":0.00023946,"MEAN_MOTION_DOT":3.527e-5,"MEAN_MOTION_DDOT":0},{"OBJECT_NAME":"STARLINK-3233","OBJECT_ID":"2021-115Y","EPOCH":"2025-10-09T05:18:05.004864","MEAN_MOTION":15.08830197,"ECCENTRICITY":0.0001003,"INCLINATION":53.2161,"RA_OF_ASC_NODE":109.0901,"ARG_OF_PERICENTER":109.2907,"MEAN_ANOMALY":250.8194,"EPHEMERIS_TYPE":0,"CLASSIFICATION_TYPE":"U","NORAD_CAT_ID":49746,"ELEMENT_SET_NO":999,"REV_AT_EPOCH":21266,"BSTAR":0.00012191181,"MEAN_MOTION_DOT":1.652e-5,"MEAN_MOTION_DDOT":0},{"OBJECT_NAME":"STARLINK-3247","OBJECT_ID":"2021-115Z","EPOCH":"2025-10-08T13:08:19.180608","MEAN_MOTION":15.0883699,"ECCENTRICITY":0.00016617,"INCLINATION":53.2145,"RA_OF_ASC_NODE":112.1143,"ARG_OF_PERICENTER":87.2117,"MEAN_ANOMALY":272.9065,"EPHEMERIS_TYPE":0,"CLASSIFICATION_TYPE":"U","NORAD_CAT_ID":49747,"ELEMENT_SET_NO":999,"REV_AT_EPOCH":21256,"BSTAR":-3.308624e-5,"MEAN_MOTION_DOT":-8.15e-6,"MEAN_MOTION_DDOT":0},{"OBJECT_NAME":"STARLINK-3248","OBJECT_ID":"2021-115AA","EPOCH":"2025-10-09T06:05:42.754848","MEAN_MOTION":15.08831689,"ECCENTRICITY":0.00011371,"INCLINATION":53.2156,"RA_OF_ASC_NODE":108.5169,"ARG_OF_PERICENTER":95.5478,"MEAN_ANOMALY":264.5644,"EPHEMERIS_TYPE":0,"CLASSIFICATION_TYPE":"U","NORAD_CAT_ID":49748,"ELEMENT_SET_NO":999,"REV_AT_EPOCH":21268,"BSTAR":1.0904636e-5,"MEAN_MOTION_DOT":-1.14e-6,"MEAN_MOTION_DDOT":0},{"OBJECT_NAME":"STARLINK-3250","OBJECT_ID":"2021-115AB","EPOCH":"2025-10-09T05:46:00.145344","MEAN_MOTION":15.08832897,"ECCENTRICITY":0.00013987,"INCLINATION":53.2159,"RA_OF_ASC_NODE":109.2435,"ARG_OF_PERICENTER":90.335,"MEAN_ANOMALY":269.7802,"EPHEMERIS_TYPE":0,"CLASSIFICATION_TYPE":"U","NORAD_CAT_ID":49749,"ELEMENT_SET_NO":999,"REV_AT_EPOCH":21266,"BSTAR":-1.8912296e-5,"MEAN_MOTION_DOT":-5.89e-6,"MEAN_MOTION_DDOT":0},{"OBJECT_NAME":"STARLINK-3236","OBJECT_ID":"2021-115AC","EPOCH":"2025-10-09T05:40:38.932608","MEAN_MOTION":15.08842216,"ECCENTRICITY":0.00013743,"INCLINATION":53.2182,"RA_OF_ASC_NODE":109.0277,"ARG_OF_PERICENTER":86.0262,"MEAN_ANOMALY":274.0888,"EPHEMERIS_TYPE":0,"CLASSIFICATION_TYPE":"U","NORAD_CAT_ID":49750,"ELEMENT_SET_NO":999,"REV_AT_EPOCH":21267,"BSTAR":7.9893131e-5,"MEAN_MOTION_DOT":9.84e-6,"MEAN_MOTION_DDOT":0},{"OBJECT_NAME":"STARLINK-3229","OBJECT_ID":"2021-115AD","EPOCH":"2025-10-08T22:51:13.081536","MEAN_MOTION":15.08836225,"ECCENTRICITY":0.000165,"INCLINATION":53.2162,"RA_OF_ASC_NODE":110.218,"ARG_OF_PERICENTER":82.4339,"MEAN_ANOMALY":277.684,"EPHEMERIS_TYPE":0,"CLASSIFICATION_TYPE":"U","NORAD_CAT_ID":49751,"ELEMENT_SET_NO":999,"REV_AT_EPOCH":21263,"BSTAR":-4.7670423e-5,"MEAN_MOTION_DOT":-1.047e-5,"MEAN_MOTION_DDOT":0},{"OBJECT_NAME":"STARLINK-3209","OBJECT_ID":"2021-115AE","EPOCH":"2025-10-09T04:27:47.313792","MEAN_MOTION":15.08835177,"ECCENTRICITY":0.00013378,"INCLINATION":53.2162,"RA_OF_ASC_NODE":99.2576,"ARG_OF_PERICENTER":82.261,"MEAN_ANOMALY":277.8534,"EPHEMERIS_TYPE":0,"CLASSIFICATION_TYPE":"U","NORAD_CAT_ID":49752,"ELEMENT_SET_NO":999,"REV_AT_EPOCH":21280,"BSTAR":1.432066e-6,"MEAN_MOTION_DOT":-2.65e-6,"MEAN_MOTION_DDOT":0}]
